ASTROCAST-0403          
1 55111U 23001DG  26068.82333059  .00013959  00000+0  51317-3 0  9990
2 55111  97.5604 161.3228 0004771 338.0704  22.0330 15.28004949129377
STARLINK-32753          
1 62481U 24254V   26068.21523886  .00030014  00000+0  10959-2 0  9998
2 62481  42.9998  18.7697 0001683 279.1962  80.8700 15.27576831 67580
